{
  "type": "FeatureCollection",
  "features": [
    {
      "type": "Feature",
      "properties": {
        "norad_id": 30979,
        "name": "FENGYUN 1C DEB",
        "group": "fengyun-1c-debris",
        "lat": -77.55118354392897,
        "lon": -62.57684830968486,
        "alt_km": 624.2787877562996,
        "timestamp": "2025-12-26T18:39:32.559937+00:00",
        "meta_object_name": "FENGYUN 1C DEB",
        "meta_object_id": "1999-025BBV",
        "meta_epoch": "2025-12-26T11:43:30.103104",
        "meta_mean_motion": 14.79005475,
        "meta_eccentricity": 0.01903354,
        "meta_inclination": 97.8297,
        "meta_ra_of_asc_node": 258.5824,
        "meta_arg_of_pericenter": 196.2555,
        "meta_mean_anomaly": 343.9227,
        "meta_ephemeris_type": 0,
        "meta_classification_type": "U",
        "meta_norad_cat_id": 30979,
        "meta_element_set_no": 999,
        "meta_rev_at_epoch": 99348,
        "meta_bstar": 0.00080785076,
        "meta_mean_motion_dot": 8.057e-05,
        "meta_mean_motion_ddot": 0,
        "tle_line1": "1 30979U 99025BBV 25360.48854286  .00008057  00000+0  80785-3 0  9994",
        "tle_line2": "2 30979  97.8297 258.5824 0190335 196.2555 343.9227 14.79005475993485"
      },
      "geometry": {
        "type": "Point",
        "coordinates": [
          -62.57684830968486,
          -77.55118354392897
        ]
      }
    },
    {
      "type": "Feature",
      "properties": {
        "norad_id": 30982,
        "name": "FENGYUN 1C DEB",
        "group": "fengyun-1c-debris",
        "lat": 16.531803127486615,
        "lon": 173.1542207515195,
        "alt_km": 756.0370062961056,
        "timestamp": "2025-12-26T18:39:32.559946+00:00",
        "meta_object_name": "FENGYUN 1C DEB",
        "meta_object_id": "1999-025BBY",
        "meta_epoch": "2025-12-26T06:21:46.662624",
        "meta_mean_motion": 14.5099281,
        "meta_eccentricity": 0.01798995,
        "meta_inclination": 98.2179,
        "meta_ra_of_asc_node": 350.195,
        "meta_arg_of_pericenter": 270.7358,
        "meta_mean_anomaly": 99.7782,
        "meta_ephemeris_type": 0,
        "meta_classification_type": "U",
        "meta_norad_cat_id": 30982,
        "meta_element_set_no": 999,
        "meta_rev_at_epoch": 71250,
        "meta_bstar": 0.00030802987,
        "meta_mean_motion_dot": 1.447e-05,
        "meta_mean_motion_ddot": 0,
        "tle_line1": "1 30982U 99025BBY 25360.26512341  .00001447  00000+0  30803-3 0  9999",
        "tle_line2": "2 30982  98.2179 350.1950 0179899 270.7358  99.7782 14.50992810712504"
      },
      "geometry": {
        "type": "Point",
        "coordinates": [
          173.1542207515195,
          16.531803127486615
        ]
      }
    },
    {
      "type": "Feature",
      "properties": {
        "norad_id": 30984,
        "name": "FENGYUN 1C DEB",
        "group": "fengyun-1c-debris",
        "lat": 18.457343003170163,
        "lon": 34.07665138442757,
        "alt_km": 670.4938050455976,
        "timestamp": "2025-12-26T18:39:32.559956+00:00",
        "meta_object_name": "FENGYUN 1C DEB",
        "meta_object_id": "1999-025BCA",
        "meta_epoch": "2025-12-25T01:11:10.996512",
        "meta_mean_motion": 14.50507957,
        "meta_eccentricity": 0.01265371,
        "meta_inclination": 98.2609,
        "meta_ra_of_asc_node": 35.1601,
        "meta_arg_of_pericenter": 330.2111,
        "meta_mean_anomaly": 29.192,
        "meta_ephemeris_type": 0,
        "meta_classification_type": "U",
        "meta_norad_cat_id": 30984,
        "meta_element_set_no": 999,
        "meta_rev_at_epoch": 95342,
        "meta_bstar": 0.00080906078,
        "meta_mean_motion_dot": 3.461e-05,
        "meta_mean_motion_ddot": 0,
        "tle_line1": "1 30984U 99025BCA 25359.04943283  .00003461  00000+0  80906-3 0  9995",
        "tle_line2": "2 30984  98.2609  35.1601 0126537 330.2111  29.1920 14.50507957953420"
      },
      "geometry": {
        "type": "Point",
        "coordinates": [
          34.07665138442757,
          18.457343003170163
        ]
      }
    },
    {
      "type": "Feature",
      "properties": {
        "norad_id": 30988,
        "name": "FENGYUN 1C DEB",
        "group": "fengyun-1c-debris",
        "lat": -61.79319848988705,
        "lon": 113.88569976309398,
        "alt_km": 439.61113086741807,
        "timestamp": "2025-12-26T18:39:32.559966+00:00",
        "meta_object_name": "FENGYUN 1C DEB",
        "meta_object_id": "1999-025BCE",
        "meta_epoch": "2025-12-24T07:25:39.389952",
        "meta_mean_motion": 15.27554396,
        "meta_eccentricity": 0.01086712,
        "meta_inclination": 98.5426,
        "meta_ra_of_asc_node": 307.3357,
        "meta_arg_of_pericenter": 299.8521,
        "meta_mean_anomaly": 59.1949,
        "meta_ephemeris_type": 0,
        "meta_classification_type": "U",
        "meta_norad_cat_id": 30988,
        "meta_element_set_no": 999,
        "meta_rev_at_epoch": 99740,
        "meta_bstar": 0.0020069634,
        "meta_mean_motion_dot": 0.00064814,
        "meta_mean_motion_ddot": 0,
        "tle_line1": "1 30988U 99025BCE 25358.30948368  .00064814  00000+0  20070-2 0  9990",
        "tle_line2": "2 30988  98.5426 307.3357 0108671 299.8521  59.1949 15.27554396997404"
      },
      "geometry": {
        "type": "Point",
        "coordinates": [
          113.88569976309398,
          -61.79319848988705
        ]
      }
    },
    {
      "type": "Feature",
      "properties": {
        "norad_id": 30989,
        "name": "FENGYUN 1C DEB",
        "group": "fengyun-1c-debris",
        "lat": 73.63694474624765,
        "lon": 41.63995542140567,
        "alt_km": 776.3141178653023,
        "timestamp": "2025-12-26T18:39:32.559976+00:00",
        "meta_object_name": "FENGYUN 1C DEB",
        "meta_object_id": "1999-025BCF",
        "meta_epoch": "2025-12-25T21:55:34.051584",
        "meta_mean_motion": 14.14002805,
        "meta_eccentricity": 0.0089711,
        "meta_inclination": 99.0516,
        "meta_ra_of_asc_node": 73.6477,
        "meta_arg_of_pericenter": 62.5911,
        "meta_mean_anomaly": 298.4352,
        "meta_ephemeris_type": 0,
        "meta_classification_type": "U",
        "meta_norad_cat_id": 30989,
        "meta_element_set_no": 999,
        "meta_rev_at_epoch": 96174,
        "meta_bstar": 0.0013457,
        "meta_mean_motion_dot": 2.613e-05,
        "meta_mean_motion_ddot": 0,
        "tle_line1": "1 30989U 99025BCF 25359.91358856  .00002613  00000+0  13457-2 0  9996",
        "tle_line2": "2 30989  99.0516  73.6477 0089711  62.5911 298.4352 14.14002805961740"
      },
      "geometry": {
        "type": "Point",
        "coordinates": [
          41.63995542140567,
          73.63694474624765
        ]
      }
    },
    {
      "type": "Feature",
      "properties": {
        "norad_id": 30993,
        "name": "FENGYUN 1C DEB",
        "group": "fengyun-1c-debris",
        "lat": 18.728440380270424,
        "lon": 90.54535308348116,
        "alt_km": 765.892400515293,
        "timestamp": "2025-12-26T18:39:32.559985+00:00",
        "meta_object_name": "FENGYUN 1C DEB",
        "meta_object_id": "1999-025BCK",
        "meta_epoch": "2025-12-26T05:29:04.587648",
        "meta_mean_motion": 14.35554004,
        "meta_eccentricity": 0.00163039,
        "meta_inclination": 98.8453,
        "meta_ra_of_asc_node": 93.009,
        "meta_arg_of_pericenter": 330.8145,
        "meta_mean_anomaly": 92.8312,
        "meta_ephemeris_type": 0,
        "meta_classification_type": "U",
        "meta_norad_cat_id": 30993,
        "meta_element_set_no": 999,
        "meta_rev_at_epoch": 97113,
        "meta_bstar": 0.001824915,
        "meta_mean_motion_dot": 5.22e-05,
        "meta_mean_motion_ddot": 0,
        "tle_line1": "1 30993U 99025BCK 25360.22852532  .00005220  00000+0  18249-2 0  9998",
        "tle_line2": "2 30993  98.8453  93.0090 0016303 330.8145  92.8312 14.35554004971138"
      },
      "geometry": {
        "type": "Point",
        "coordinates": [
          90.54535308348116,
          18.728440380270424
        ]
      }
    },
    {
      "type": "Feature",
      "properties": {
        "norad_id": 30994,
        "name": "FENGYUN 1C DEB",
        "group": "fengyun-1c-debris",
        "lat": -59.21031842447496,
        "lon": 23.6870736220662,
        "alt_km": 873.2293751280267,
        "timestamp": "2025-12-26T18:39:32.559995+00:00",
        "meta_object_name": "FENGYUN 1C DEB",
        "meta_object_id": "1999-025BCL",
        "meta_epoch": "2025-12-26T12:08:30.018336",
        "meta_mean_motion": 14.1177862,
        "meta_eccentricity": 0.00184824,
        "meta_inclination": 98.6996,
        "meta_ra_of_asc_node": 8.5345,
        "meta_arg_of_pericenter": 136.4718,
        "meta_mean_anomaly": 223.7916,
        "meta_ephemeris_type": 0,
        "meta_classification_type": "U",
        "meta_norad_cat_id": 30994,
        "meta_element_set_no": 999,
        "meta_rev_at_epoch": 96779,
        "meta_bstar": 0.00014544416,
        "meta_mean_motion_dot": 2.23e-06,
        "meta_mean_motion_ddot": 0,
        "tle_line1": "1 30994U 99025BCL 25360.50590299  .00000223  00000+0  14544-3 0  9992",
        "tle_line2": "2 30994  98.6996   8.5345 0018482 136.4718 223.7916 14.11778620967797"
      },
      "geometry": {
        "type": "Point",
        "coordinates": [
          23.6870736220662,
          -59.21031842447496
        ]
      }
    }
  ]
}